{
  "type": "FeatureCollection",
  "features": [
    {
      "type": "Feature",
      "properties": {},
      "geometry": {
        "coordinates": [
          [
            [2.0393012788821636, 41.4734183713297],
            [2.0284789822963205, 41.45357414039859],
            [2.050866090398131, 41.450399116472425],
            [2.0667505594617808, 41.45347213284387],
            [2.082669775047151, 41.45867589386617],
            [2.0957398886100407, 41.46656894041294],
            [2.0995779174791096, 41.475607499988826],
            [2.0865784221419688, 41.486123932996406],
            [2.0705218573353648, 41.48116611935896],
            [2.0562002619274153, 41.47299342619689],
            [2.0539520564989857, 41.47598231301873],
            [2.044694345937671, 41.477149554407475],
            [2.0393012788821636, 41.4734183713297]
          ]
        ],
        "type": "Polygon"
      }
    },
    {
      "type": "Feature",
      "properties": {},
      "geometry": {
        "coordinates": [
          [
            [2.043905749445514, 41.50968654262928],
            [2.031113264745045, 41.50155761348449],
            [2.0274739080714426, 41.49287608744086],
            [2.0297078443408907, 41.481840079328975],
            [2.035166137362296, 41.48008281922],
            [2.042498381827727, 41.48301498181797],
            [2.0441817395260387, 41.491706987867275],
            [2.0439826251758575, 41.49586312651047],
            [2.0490641180471414, 41.50188905907433],
            [2.0486762599344672, 41.50741481659517],
            [2.043905749445514, 41.50968654262928]
          ]
        ],
        "type": "Polygon"
      }
    }
  ]
}
